start=new Date('2021-11-07T00:00:00.000Z').valueOf();
sats=[{"RCS_SIZE":"LARGE","NORAD_CAT_ID":"48466","GP_ID":"189104844","MEAN_MOTION":"15.06381225","INCLINATION":"53.0599","OBJECT_TYPE":"PAYLOAD","RA_OF_ASC_NODE":"102.2707","EPHEMERIS_TYPE":"0","CENTER_NAME":"EARTH","TLE_LINE2":"2 48466  53.0599 102.2707 0001782  63.1608 296.9563 15.06381225 29039","MEAN_MOTION_DOT":"-0.00002459","COUNTRY_CODE":"US","REV_AT_EPOCH":"2903","FILE":"3205928","PERIAPSIS":"546.037","MEAN_ELEMENT_THEORY":"SGP4","OBJECT_NAME":"STARLINK-2687","SEMIMAJOR_AXIS":"6925.406","ELEMENT_SET_NO":"999","BSTAR":"-0.00014633000000","ARG_OF_PERICENTER":"63.1608","CLASSIFICATION_TYPE":"U","APOAPSIS":"548.505","TLE_LINE1":"1 48466U 21040AQ  21310.73290978 -.00002459  00000-0 -14633-3 0  9999","ECCENTRICITY":"0.00017820","TIME_SYSTEM":"UTC","EPOCH":"2021-11-06T17:35:23.404992","SITE":"AFETR","MEAN_MOTION_DDOT":"0.0000000000000","OBJECT_ID":"2021-040AQ","MEAN_ANOMALY":"296.9563","DECAY_DATE":null,"REF_FRAME":"TEME","LAUNCH_DATE":"2021-05-09","PERIOD":"95.593"},{"OBJECT_ID":"2021-040AR","MEAN_MOTION_DDOT":"0.0000000000000","MEAN_ANOMALY":"270.2887","PERIOD":"95.592","DECAY_DATE":null,"LAUNCH_DATE":"2021-05-09","REF_FRAME":"TEME","CLASSIFICATION_TYPE":"U","ARG_OF_PERICENTER":"89.8274","SITE":"AFETR","EPOCH":"2021-11-06T11:50:20.986944","TIME_SYSTEM":"UTC","TLE_LINE1":"1 48467U 21040AR  21310.49329846  .00001549  00000-0  12288-3 0  9991","ECCENTRICITY":"0.00015020","APOAPSIS":"548.262","PERIAPSIS":"546.182","MEAN_ELEMENT_THEORY":"SGP4","REV_AT_EPOCH":"2772","COUNTRY_CODE":"US","FILE":"3206165","CENTER_NAME":"EARTH","MEAN_MOTION_DOT":"0.00001549","TLE_LINE2":"2 48467  53.0558 103.3477 0001502  89.8274 270.2887 15.06397303 27727","EPHEMERIS_TYPE":"0","RA_OF_ASC_NODE":"103.3477","BSTAR":"0.00012288000000","OBJECT_NAME":"STARLINK-2659","ELEMENT_SET_NO":"999","SEMIMAJOR_AXIS":"6925.357","GP_ID":"189131743","RCS_SIZE":"LARGE","NORAD_CAT_ID":"48467","OBJECT_TYPE":"PAYLOAD","INCLINATION":"53.0558","MEAN_MOTION":"15.06397303"},{"PERIAPSIS":"546.045","MEAN_ELEMENT_THEORY":"SGP4","REV_AT_EPOCH":"2904","COUNTRY_CODE":"US","FILE":"3205929","CENTER_NAME":"EARTH","TLE_LINE2":"2 48468  53.0550 101.9334 0001714  74.8395 285.2783 15.06393907 29043","MEAN_MOTION_DOT":"0.00001137","EPHEMERIS_TYPE":"0","RA_OF_ASC_NODE":"101.9334","BSTAR":"0.00009521400000","OBJECT_NAME":"STARLINK-2685","ELEMENT_SET_NO":"999","SEMIMAJOR_AXIS":"6925.367","GP_ID":"189104371","NORAD_CAT_ID":"48468","RCS_SIZE":"LARGE","OBJECT_TYPE":"PAYLOAD","INCLINATION":"53.0550","MEAN_MOTION":"15.06393907","OBJECT_ID":"2021-040AS","MEAN_MOTION_DDOT":"0.0000000000000","MEAN_ANOMALY":"285.2783","PERIOD":"95.593","DECAY_DATE":null,"LAUNCH_DATE":"2021-05-09","REF_FRAME":"TEME","ARG_OF_PERICENTER":"74.8395","CLASSIFICATION_TYPE":"U","SITE":"AFETR","EPOCH":"2021-11-06T19:21:30.935520","TIME_SYSTEM":"UTC","TLE_LINE1":"1 48468U 21040AS  21310.80660805  .00001137  00000-0  95214-4 0  9994","ECCENTRICITY":"0.00017140","APOAPSIS":"548.419"},{"CLASSIFICATION_TYPE":"U","ARG_OF_PERICENTER":"78.5552","APOAPSIS":"548.543","TLE_LINE1":"1 48469U 21040AT  21310.68866525 -.00003074  00000-0 -18764-3 0  9996","ECCENTRICITY":"0.00018640","EPOCH":"2021-11-06T16:31:40.677600","TIME_SYSTEM":"UTC","SITE":"AFETR","MEAN_MOTION_DDOT":"0.0000000000000","OBJECT_ID":"2021-040AT","MEAN_ANOMALY":"281.5646","LAUNCH_DATE":"2021-05-09","DECAY_DATE":null,"REF_FRAME":"TEME","PERIOD":"95.593","NORAD_CAT_ID":"48469","RCS_SIZE":"LARGE","GP_ID":"189104337","MEAN_MOTION":"15.06387259","INCLINATION":"53.0560","OBJECT_TYPE":"PAYLOAD","EPHEMERIS_TYPE":"0","RA_OF_ASC_NODE":"102.4788","CENTER_NAME":"EARTH","TLE_LINE2":"2 48469  53.0560 102.4788 0001864  78.5552 281.5646 15.06387259 29024","MEAN_MOTION_DOT":"-0.00003074","COUNTRY_CODE":"US","REV_AT_EPOCH":"2902","FILE":"3205928","PERIAPSIS":"545.962","MEAN_ELEMENT_THEORY":"SGP4","OBJECT_NAME":"STARLINK-2661","SEMIMAJOR_AXIS":"6925.388","ELEMENT_SET_NO":"999","BSTAR":"-0.00018764000000"},{"ARG_OF_PERICENTER":"84.6496","CLASSIFICATION_TYPE":"U","APOAPSIS":"548.396","ECCENTRICITY":"0.00016580","TLE_LINE1":"1 48470U 21040AU  21310.68497834 -.00001428  00000-0 -77035-4 0  9999","TIME_SYSTEM":"UTC","EPOCH":"2021-11-06T16:26:22.128576","SITE":"AFETR","MEAN_MOTION_DDOT":"0.0000000000000","OBJECT_ID":"2021-040AU","REF_FRAME":"TEME","DECAY_DATE":null,"LAUNCH_DATE":"2021-05-09","PERIOD":"95.593","MEAN_ANOMALY":"275.4682","NORAD_CAT_ID":"48470","RCS_SIZE":"LARGE","GP_ID":"189102365","MEAN_MOTION":"15.06388850","INCLINATION":"53.0547","OBJECT_TYPE":"PAYLOAD","RA_OF_ASC_NODE":"102.4823","EPHEMERIS_TYPE":"0","TLE_LINE2":"2 48470  53.0547 102.4823 0001658  84.6496 275.4682 15.06388850 29027","MEAN_MOTION_DOT":"-0.00001428","CENTER_NAME":"EARTH","FILE":"3205833","REV_AT_EPOCH":"2902","COUNTRY_CODE":"US","MEAN_ELEMENT_THEORY":"SGP4","PERIAPSIS":"546.100","ELEMENT_SET_NO":"999","SEMIMAJOR_AXIS":"6925.383","OBJECT_NAME":"STARLINK-2675","BSTAR":"-0.00007703500000"},{"MEAN_MOTION_DDOT":"0.0000000000000","OBJECT_ID":"2021-040AV","DECAY_DATE":null,"PERIOD":"95.592","LAUNCH_DATE":"2021-05-09","REF_FRAME":"TEME","MEAN_ANOMALY":"297.6527","ARG_OF_PERICENTER":"62.4608","CLASSIFICATION_TYPE":"U","ECCENTRICITY":"0.00014480","TLE_LINE1":"1 48471U 21040AV  21310.74395172 -.00000209  00000-0  48346-5 0  9998","APOAPSIS":"548.233","SITE":"AFETR","TIME_SYSTEM":"UTC","EPOCH":"2021-11-06T17:51:17.428608","TLE_LINE2":"2 48471  53.0555 102.2297 0001448  62.4608 297.6527 15.06394470 29036","MEAN_MOTION_DOT":"-0.00000209","CENTER_NAME":"EARTH","EPHEMERIS_TYPE":"0","RA_OF_ASC_NODE":"102.2297","MEAN_ELEMENT_THEORY":"SGP4","PERIAPSIS":"546.228","FILE":"3205928","REV_AT_EPOCH":"2903","COUNTRY_CODE":"US","SEMIMAJOR_AXIS":"6925.366","ELEMENT_SET_NO":"999","OBJECT_NAME":"STARLINK-2684","BSTAR":"0.00000483460000","GP_ID":"189104339","RCS_SIZE":"LARGE","NORAD_CAT_ID":"48471","MEAN_MOTION":"15.06394470","OBJECT_TYPE":"PAYLOAD","INCLINATION":"53.0555"},{"APOAPSIS":"548.326","ECCENTRICITY":"0.00015350","TLE_LINE1":"1 48472U 21040AW  21310.72553203 -.00001706  00000-0 -95668-4 0  9990","EPOCH":"2021-11-06T17:24:45.967392","TIME_SYSTEM":"UTC","SITE":"AFETR","ARG_OF_PERICENTER":"100.4761","CLASSIFICATION_TYPE":"U","PERIOD":"95.593","DECAY_DATE":null,"LAUNCH_DATE":"2021-05-09","REF_FRAME":"TEME","MEAN_ANOMALY":"259.6401","MEAN_MOTION_DDOT":"0.0000000000000","OBJECT_ID":"2021-040AW","MEAN_MOTION":"15.06383945","INCLINATION":"53.0534","OBJECT_TYPE":"PAYLOAD","NORAD_CAT_ID":"48472","RCS_SIZE":"LARGE","GP_ID":"189104385","SEMIMAJOR_AXIS":"6925.398","ELEMENT_SET_NO":"999","OBJECT_NAME":"STARLINK-2722","BSTAR":"-0.00009566800000","RA_OF_ASC_NODE":"102.3146","EPHEMERIS_TYPE":"0","MEAN_MOTION_DOT":"-0.00001706","TLE_LINE2":"2 48472  53.0534 102.3146 0001535 100.4761 259.6401 15.06383945 28198","CENTER_NAME":"EARTH","FILE":"3205931","COUNTRY_CODE":"US","REV_AT_EPOCH":"2819","MEAN_ELEMENT_THEORY":"SGP4","PERIAPSIS":"546.200"},{"MEAN_ANOMALY":"283.6946","LAUNCH_DATE":"2021-05-09","DECAY_DATE":null,"PERIOD":"95.593","REF_FRAME":"TEME","MEAN_MOTION_DDOT":"0.0000000000000","OBJECT_ID":"2021-040AX","APOAPSIS":"548.575","TLE_LINE1":"1 48473U 21040AX  21310.76238818 -.00002113  00000-0 -12301-3 0  9992","ECCENTRICITY":"0.00018950","TIME_SYSTEM":"UTC","EPOCH":"2021-11-06T18:17:50.338752","SITE":"AFETR","CLASSIFICATION_TYPE":"U","ARG_OF_PERICENTER":"76.4254","OBJECT_NAME":"STARLINK-2658","ELEMENT_SET_NO":"999","SEMIMAJOR_AXIS":"6925.398","BSTAR":"-0.00012301000000","EPHEMERIS_TYPE":"0","RA_OF_ASC_NODE":"102.1516","CENTER_NAME":"EARTH","MEAN_MOTION_DOT":"-0.00002113","TLE_LINE2":"2 48473  53.0562 102.1516 0001895  76.4254 283.6946 15.06383834 29039","REV_AT_EPOCH":"2903","COUNTRY_CODE":"US","FILE":"3205931","PERIAPSIS":"545.951","MEAN_ELEMENT_THEORY":"SGP4","MEAN_MOTION":"15.06383834","INCLINATION":"53.0562","OBJECT_TYPE":"PAYLOAD","NORAD_CAT_ID":"48473","RCS_SIZE":"LARGE","GP_ID":"189104889"},{"REF_FRAME":"TEME","DECAY_DATE":null,"LAUNCH_DATE":"2021-05-09","PERIOD":"95.593","MEAN_ANOMALY":"274.9351","OBJECT_ID":"2021-040AY","MEAN_MOTION_DDOT":"0.0000000000000","SITE":"AFETR","EPOCH":"2021-11-06T19:05:36.807360","TIME_SYSTEM":"UTC","ECCENTRICITY":"0.00015860","TLE_LINE1":"1 48474U 21040AY  21310.79556490 -.00001804  00000-0 -10226-3 0  9995","APOAPSIS":"548.363","ARG_OF_PERICENTER":"85.1818","CLASSIFICATION_TYPE":"U","BSTAR":"-0.00010226000000","SEMIMAJOR_AXIS":"6925.400","ELEMENT_SET_NO":"999","OBJECT_NAME":"STARLINK-2697","MEAN_ELEMENT_THEORY":"SGP4","PERIAPSIS":"546.167","FILE":"3205931","COUNTRY_CODE":"US","REV_AT_EPOCH":"2903","TLE_LINE2":"2 48474  53.0508 102.0031 0001586  85.1818 274.9351 15.06383208 29039","MEAN_MOTION_DOT":"-0.00001804","CENTER_NAME":"EARTH","RA_OF_ASC_NODE":"102.0031","EPHEMERIS_TYPE":"0","OBJECT_TYPE":"PAYLOAD","INCLINATION":"53.0508","MEAN_MOTION":"15.06383208","GP_ID":"189104897","NORAD_CAT_ID":"48474","RCS_SIZE":"LARGE"},{"MEAN_ANOMALY":"268.6546","LAUNCH_DATE":"2021-05-09","DECAY_DATE":null,"PERIOD":"95.593","REF_FRAME":"TEME","OBJECT_ID":"2021-040AZ","MEAN_MOTION_DDOT":"0.0000000000000","SITE":"AFETR","TIME_SYSTEM":"UTC","EPOCH":"2021-11-06T18:23:09.000096","TLE_LINE1":"1 48475U 21040AZ  21310.76607639  .00001026  00000-0  87805-4 0  9997","ECCENTRICITY":"0.00016820","APOAPSIS":"548.401","CLASSIFICATION_TYPE":"U","ARG_OF_PERICENTER":"91.4636","BSTAR":"0.00008780500000","OBJECT_NAME":"STARLINK-2619","ELEMENT_SET_NO":"999","SEMIMAJOR_AXIS":"6925.371","PERIAPSIS":"546.072","MEAN_ELEMENT_THEORY":"SGP4","REV_AT_EPOCH":"2903","COUNTRY_CODE":"US","FILE":"3205799","CENTER_NAME":"EARTH","TLE_LINE2":"2 48475  53.0550 102.1231 0001682  91.4636 268.6546 15.06392530 29039","MEAN_MOTION_DOT":"0.00001026","EPHEMERIS_TYPE":"0","RA_OF_ASC_NODE":"102.1231","OBJECT_TYPE":"PAYLOAD","INCLINATION":"53.0550","MEAN_MOTION":"15.06392530","GP_ID":"189100632","RCS_SIZE":"LARGE","NORAD_CAT_ID":"48475"}];
